[
    {
        "OBJECT_NAME": "NAVSTAR 72 (USA 258)",
        "OBJECT_ID": "2014-068A",
        "EPOCH": "2025-03-08T05:59:52.222272",
        "MEAN_MOTION": 2.00576559,
        "ECCENTRICITY": 0.0056204,
        "INCLINATION": 56.6447,
        "RA_OF_ASC_NODE": 48.9625,
        "ARG_OF_PERICENTER": 63.5989,
        "MEAN_ANOMALY": 296.9797,
        "EPHEMERIS_TYPE": 0,
        "CLASSIFICATION_TYPE": "U",
        "NORAD_CAT_ID": 40294,
        "ELEMENT_SET_NO": 999,
        "REV_AT_EPOCH": 7586,
        "BSTAR": 0,
        "MEAN_MOTION_DOT": -3.7e-07,
        "MEAN_MOTION_DDOT": 0
    },
    {
        "OBJECT_NAME": "NAVSTAR 73 (USA 260)",
        "OBJECT_ID": "2015-013A",
        "EPOCH": "2025-03-10T09:15:07.533504",
        "MEAN_MOTION": 2.00549231,
        "ECCENTRICITY": 0.0097643,
        "INCLINATION": 53.2638,
        "RA_OF_ASC_NODE": 223.3676,
        "ARG_OF_PERICENTER": 34.5532,
        "MEAN_ANOMALY": 326.0331,
        "EPHEMERIS_TYPE": 0,
        "CLASSIFICATION_TYPE": "U",
        "NORAD_CAT_ID": 40534,
        "ELEMENT_SET_NO": 999,
        "REV_AT_EPOCH": 7252,
        "BSTAR": 0,
        "MEAN_MOTION_DOT": -7e-08,
        "MEAN_MOTION_DDOT": 0
    },
    {
        "OBJECT_NAME": "NAVSTAR 74 (USA 262)",
        "OBJECT_ID": "2015-033A",
        "EPOCH": "2025-03-10T13:06:05.304672",
        "MEAN_MOTION": 2.00553273,
        "ECCENTRICITY": 0.0104414,
        "INCLINATION": 54.3625,
        "RA_OF_ASC_NODE": 286.1582,
        "ARG_OF_PERICENTER": 23.789,
        "MEAN_ANOMALY": 336.7364,
        "EPHEMERIS_TYPE": 0,
        "CLASSIFICATION_TYPE": "U",
        "NORAD_CAT_ID": 40730,
        "ELEMENT_SET_NO": 999,
        "REV_AT_EPOCH": 7071,
        "BSTAR": 0,
        "MEAN_MOTION_DOT": -2e-08,
        "MEAN_MOTION_DDOT": 0
    },
    {
        "OBJECT_NAME": "NAVSTAR 75 (USA 265)",
        "OBJECT_ID": "2015-062A",
        "EPOCH": "2025-03-10T14:27:01.345824",
        "MEAN_MOTION": 2.00566726,
        "ECCENTRICITY": 0.0103014,
        "INCLINATION": 56.6243,
        "RA_OF_ASC_NODE": 48.7272,
        "ARG_OF_PERICENTER": 228.5478,
        "MEAN_ANOMALY": 130.5633,
        "EPHEMERIS_TYPE": 0,
        "CLASSIFICATION_TYPE": "U",
        "NORAD_CAT_ID": 41019,
        "ELEMENT_SET_NO": 999,
        "REV_AT_EPOCH": 6853,
        "BSTAR": 0,
        "MEAN_MOTION_DOT": -4.3e-07,
        "MEAN_MOTION_DDOT": 0
    },
    {
        "OBJECT_NAME": "NAVSTAR 76 (USA 266)",
        "OBJECT_ID": "2016-007A",
        "EPOCH": "2025-03-09T16:35:15.550080",
        "MEAN_MOTION": 2.0057441,
        "ECCENTRICITY": 0.0086872,
        "INCLINATION": 55.2476,
        "RA_OF_ASC_NODE": 107.8978,
        "ARG_OF_PERICENTER": 241.4168,
        "MEAN_ANOMALY": 117.7745,
        "EPHEMERIS_TYPE": 0,
        "CLASSIFICATION_TYPE": "U",
        "NORAD_CAT_ID": 41328,
        "ELEMENT_SET_NO": 999,
        "REV_AT_EPOCH": 6652,
        "BSTAR": 0,
        "MEAN_MOTION_DOT": 9e-08,
        "MEAN_MOTION_DDOT": 0
    },
    {
        "OBJECT_NAME": "NAVSTAR 77 (USA 289)",
        "OBJECT_ID": "2018-109A",
        "EPOCH": "2025-03-10T19:54:17.707968",
        "MEAN_MOTION": 2.00565995,
        "ECCENTRICITY": 0.0033062,
        "INCLINATION": 55.4143,
        "RA_OF_ASC_NODE": 110.4856,
        "ARG_OF_PERICENTER": 197.1253,
        "MEAN_ANOMALY": 159.2272,
        "EPHEMERIS_TYPE": 0,
        "CLASSIFICATION_TYPE": "U",
        "NORAD_CAT_ID": 43873,
        "ELEMENT_SET_NO": 999,
        "REV_AT_EPOCH": 4577,
        "BSTAR": 0,
        "MEAN_MOTION_DOT": 2e-07,
        "MEAN_MOTION_DDOT": 0
    },
    {
        "OBJECT_NAME": "NAVSTAR 78 (USA 293)",
        "OBJECT_ID": "2019-056A",
        "EPOCH": "2025-03-09T06:10:18.319872",
        "MEAN_MOTION": 2.00560621,
        "ECCENTRICITY": 0.0049045,
        "INCLINATION": 55.8067,
        "RA_OF_ASC_NODE": 349.5929,
        "ARG_OF_PERICENTER": 194.1599,
        "MEAN_ANOMALY": 9.2884,
        "EPHEMERIS_TYPE": 0,
        "CLASSIFICATION_TYPE": "U",
        "NORAD_CAT_ID": 44506,
        "ELEMENT_SET_NO": 999,
        "REV_AT_EPOCH": 4074,
        "BSTAR": 0,
        "MEAN_MOTION_DOT": -1.13e-06,
        "MEAN_MOTION_DDOT": 0
    },
    {
        "OBJECT_NAME": "NAVSTAR 79 (USA 304)",
        "OBJECT_ID": "2020-041A",
        "EPOCH": "2025-03-10T07:00:29.168928",
        "MEAN_MOTION": 2.00568243,
        "ECCENTRICITY": 0.0051134,
        "INCLINATION": 56.3437,
        "RA_OF_ASC_NODE": 46.9984,
        "ARG_OF_PERICENTER": 199.8145,
        "MEAN_ANOMALY": 332.9008,
        "EPHEMERIS_TYPE": 0,
        "CLASSIFICATION_TYPE": "U",
        "NORAD_CAT_ID": 45854,
        "ELEMENT_SET_NO": 999,
        "REV_AT_EPOCH": 3473,
        "BSTAR": 0,
        "MEAN_MOTION_DOT": -4.6e-07,
        "MEAN_MOTION_DDOT": 0
    },
    {
        "OBJECT_NAME": "NAVSTAR 80 (USA 309)",
        "OBJECT_ID": "2020-078A",
        "EPOCH": "2025-03-05T20:10:28.557984",
        "MEAN_MOTION": 2.00558631,
        "ECCENTRICITY": 0.005492,
        "INCLINATION": 54.0924,
        "RA_OF_ASC_NODE": 229.7779,
        "ARG_OF_PERICENTER": 198.7972,
        "MEAN_ANOMALY": 330.8735,
        "EPHEMERIS_TYPE": 0,
        "CLASSIFICATION_TYPE": "U",
        "NORAD_CAT_ID": 46826,
        "ELEMENT_SET_NO": 999,
        "REV_AT_EPOCH": 3211,
        "BSTAR": 0,
        "MEAN_MOTION_DOT": 5.8e-07,
        "MEAN_MOTION_DDOT": 0
    },
    {
        "OBJECT_NAME": "NAVSTAR 81 (USA 319)",
        "OBJECT_ID": "2021-054A",
        "EPOCH": "2025-03-04T12:47:31.652736",
        "MEAN_MOTION": 2.00569804,
        "ECCENTRICITY": 0.0018851,
        "INCLINATION": 55.3387,
        "RA_OF_ASC_NODE": 351.3108,
        "ARG_OF_PERICENTER": 231.0139,
        "MEAN_ANOMALY": 262.9334,
        "EPHEMERIS_TYPE": 0,
        "CLASSIFICATION_TYPE": "U",
        "NORAD_CAT_ID": 48859,
        "ELEMENT_SET_NO": 999,
        "REV_AT_EPOCH": 2733,
        "BSTAR": 0,
        "MEAN_MOTION_DOT": -9.4e-07,
        "MEAN_MOTION_DDOT": 0
    },
    {
        "OBJECT_NAME": "NAVSTAR 82 (USA 343)",
        "OBJECT_ID": "2023-009A",
        "EPOCH": "2025-02-24T19:20:29.072256",
        "MEAN_MOTION": 2.00545614,
        "ECCENTRICITY": 9.71e-05,
        "INCLINATION": 55.0899,
        "RA_OF_ASC_NODE": 167.264,
        "ARG_OF_PERICENTER": 39.5557,
        "MEAN_ANOMALY": 308.9006,
        "EPHEMERIS_TYPE": 0,
        "CLASSIFICATION_TYPE": "U",
        "NORAD_CAT_ID": 55268,
        "ELEMENT_SET_NO": 999,
        "REV_AT_EPOCH": 1566,
        "BSTAR": 0,
        "MEAN_MOTION_DOT": 1e-08,
        "MEAN_MOTION_DDOT": 0
    },
    {
        "OBJECT_NAME": "NAVSTAR 83 (USA 440)",
        "OBJECT_ID": "2024-242A",
        "EPOCH": "2025-03-08T11:08:14.705376",
        "MEAN_MOTION": 2.0055654,
        "ECCENTRICITY": 0.0004798,
        "INCLINATION": 54.9905,
        "RA_OF_ASC_NODE": 353.0382,
        "ARG_OF_PERICENTER": 320.2659,
        "MEAN_ANOMALY": 251.8636,
        "EPHEMERIS_TYPE": 0,
        "CLASSIFICATION_TYPE": "U",
        "NORAD_CAT_ID": 62339,
        "ELEMENT_SET_NO": 999,
        "REV_AT_EPOCH": 191,
        "BSTAR": 0,
        "MEAN_MOTION_DOT": -1.13e-06,
        "MEAN_MOTION_DDOT": 0
    }
]