GPS BIIF-8  (PRN 03)    
1 40294U 14068A   25067.24990998 -.00000037  00000+0  00000+0 0  9997
2 40294  56.6447  48.9625 0056204  63.5989 296.9797  2.00576559 75868
GPS BIIF-9  (PRN 26)    
1 40534U 15013A   25069.38550386 -.00000007  00000+0  00000+0 0  9992
2 40534  53.2638 223.3676 0097643  34.5532 326.0331  2.00549231 72525
GPS BIIF-10 (PRN 08)    
1 40730U 15033A   25069.54589473 -.00000002  00000+0  00000+0 0  9994
2 40730  54.3625 286.1582 0104414  23.7890 336.7364  2.00553273 70710
GPS BIIF-11 (PRN 10)    
1 41019U 15062A   25069.60209891 -.00000043  00000+0  00000+0 0  9992
2 41019  56.6243  48.7272 0103014 228.5478 130.5633  2.00566726 68535
GPS BIIF-12 (PRN 32)    
1 41328U 16007A   25068.69115220  .00000009  00000+0  00000+0 0  9996
2 41328  55.2476 107.8978 0086872 241.4168 117.7745  2.00574410 66520
GPS BIII-1  (PRN 04)    
1 43873U 18109A   25069.82937162  .00000020  00000+0  00000+0 0  9994
2 43873  55.4143 110.4856 0033062 197.1253 159.2272  2.00565995 45778
GPS BIII-2  (PRN 18)    
1 44506U 19056A   25068.25715648 -.00000113  00000+0  00000+0 0  9993
2 44506  55.8067 349.5929 0049045 194.1599   9.2884  2.00560621 40741
GPS BIII-3  (PRN 23)    
1 45854U 20041A   25069.29200427 -.00000046  00000+0  00000+0 0  9990
2 45854  56.3437  46.9984 0051134 199.8145 332.9008  2.00568243 34739
GPS BIII-4  (PRN 14)    
1 46826U 20078A   25064.84060831  .00000058  00000+0  00000+0 0  9991
2 46826  54.0924 229.7779 0054920 198.7972 330.8735  2.00558631 32114
GPS BIII-5  (PRN 11)    
1 48859U 21054A   25063.53300524 -.00000094  00000+0  00000+0 0  9996
2 48859  55.3387 351.3108 0018851 231.0139 262.9334  2.00569804 27338
GPS BIII-6  (PRN 28)    
1 55268U 23009A   25055.80589204  .00000001  00000+0  00000+0 0  9992
2 55268  55.0899 167.2640 0000971  39.5557 308.9006  2.00545614 15662
GPS BIII-7  (PRN 01)    
1 62339U 24242A   25067.46405909 -.00000113  00000+0  00000+0 0  9998
2 62339  54.9905 353.0382 0004798 320.2659 251.8636  2.00556540  1915
